[{"OBJECT_NAME":"STARLINK-6195","OBJECT_ID":"2023-083AC","EPOCH":"2026-03-09T22:00:01.999584","MEAN_MOTION":15.07269312,"ECCENTRICITY":6.955e-5,"INCLINATION":43.0005,"RA_OF_ASC_NODE":67.9352,"ARG_OF_PERICENTER":280.3528,"MEAN_ANOMALY":308.3856,"EPHEMERIS_TYPE":0,"CLASSIFICATION_TYPE":"U","NORAD_CAT_ID":56902,"ELEMENT_SET_NO":999,"REV_AT_EPOCH":572,"BSTAR":0.0038377951,"MEAN_MOTION_DOT":0.0005915,"MEAN_MOTION_DDOT":0},{"OBJECT_NAME":"NOAA 17 DEB","OBJECT_ID":"2002-032BW","EPOCH":"2026-03-08T22:40:23.580768","MEAN_MOTION":15.05196658,"ECCENTRICITY":0.00149213,"INCLINATION":98.7181,"RA_OF_ASC_NODE":121.0481,"ARG_OF_PERICENTER":217.4424,"MEAN_ANOMALY":142.5761,"EPHEMERIS_TYPE":0,"CLASSIFICATION_TYPE":"U","NORAD_CAT_ID":48737,"ELEMENT_SET_NO":999,"REV_AT_EPOCH":26108,"BSTAR":0.0055556624,"MEAN_MOTION_DOT":0.00080221,"MEAN_MOTION_DDOT":0}]
